[
  {
    "OBJECT_NAME": "STARLINK-5093",
    "OBJECT_ID": "23058R",
    "EPOCH": "2025-11-10T22:56:59.198208",
    "MEAN_MOTION": 15.01260321,
    "ECCENTRICITY": 0.0001759,
    "INCLINATION": 97.6044,
    "RA_OF_ASC_NODE": 313.9282,
    "ARG_OF_PERICENTER": 86.5122,
    "MEAN_ANOMALY": 273.6304,
    "EPHEMERIS_TYPE": 0,
    "CLASSIFICATION_TYPE": "U",
    "NORAD_CAT_ID": 56332,
    "ELEMENT_SET_NO": 999,
    "REV_AT_EPOCH": 14031,
    "BSTAR": 5.9486000000000006e-05,
    "MEAN_MOTION_DOT": 7.06e-06,
    "MEAN_MOTION_DDOT": 0.0,
    "TLE_LINE1": "1 56332U 23058R   25314.95624072  .00000706  00000+0  59486-4 0  9995",
    "TLE_LINE2": "2 56332  97.6044 313.9282 0001759  86.5122 273.6304 15.01260321140310",
    "COMMENT": "Grouped by shell and plane from TLE"
  },
  {
    "OBJECT_NAME": "STARLINK-5553",
    "OBJECT_ID": "23058S",
    "EPOCH": "2025-11-11T06:10:29.536320",
    "MEAN_MOTION": 15.05644123,
    "ECCENTRICITY": 0.0001948,
    "INCLINATION": 97.6006,
    "RA_OF_ASC_NODE": 314.4439,
    "ARG_OF_PERICENTER": 88.2687,
    "MEAN_ANOMALY": 271.8762,
    "EPHEMERIS_TYPE": 0,
    "CLASSIFICATION_TYPE": "U",
    "NORAD_CAT_ID": 56333,
    "ELEMENT_SET_NO": 999,
    "REV_AT_EPOCH": 14037,
    "BSTAR": 2.374e-05,
    "MEAN_MOTION_DOT": 2.82e-06,
    "MEAN_MOTION_DDOT": 0.0,
    "TLE_LINE1": "1 56333U 23058S   25315.25728630  .00000282  00000+0  23740-4 0  9998",
    "TLE_LINE2": "2 56333  97.6006 314.4439 0001948  88.2687 271.8762 15.05644123140378",
    "COMMENT": "Grouped by shell and plane from TLE"
  },
  {
    "OBJECT_NAME": "STARLINK-5548",
    "OBJECT_ID": "23058T",
    "EPOCH": "2025-11-11T06:30:28.228320",
    "MEAN_MOTION": 15.05651797,
    "ECCENTRICITY": 0.0002019,
    "INCLINATION": 97.6041,
    "RA_OF_ASC_NODE": 314.5768,
    "ARG_OF_PERICENTER": 87.6635,
    "MEAN_ANOMALY": 272.4823,
    "EPHEMERIS_TYPE": 0,
    "CLASSIFICATION_TYPE": "U",
    "NORAD_CAT_ID": 56334,
    "ELEMENT_SET_NO": 999,
    "REV_AT_EPOCH": 14038,
    "BSTAR": 0.0007331,
    "MEAN_MOTION_DOT": 0.00010534,
    "MEAN_MOTION_DDOT": 0.0,
    "TLE_LINE1": "1 56334U 23058T   25315.27116005  .00010534  00000+0  73310-3 0  9996",
    "TLE_LINE2": "2 56334  97.6041 314.5768 0002019  87.6635 272.4823 15.05651797140381",
    "COMMENT": "Grouped by shell and plane from TLE"
  },
  {
    "OBJECT_NAME": "STARLINK-5559",
    "OBJECT_ID": "23058U",
    "EPOCH": "2025-11-11T00:27:34.371648",
    "MEAN_MOTION": 15.05651621,
    "ECCENTRICITY": 0.0001603,
    "INCLINATION": 97.6032,
    "RA_OF_ASC_NODE": 314.2992,
    "ARG_OF_PERICENTER": 87.9264,
    "MEAN_ANOMALY": 272.2147,
    "EPHEMERIS_TYPE": 0,
    "CLASSIFICATION_TYPE": "U",
    "NORAD_CAT_ID": 56335,
    "ELEMENT_SET_NO": 999,
    "REV_AT_EPOCH": 14034,
    "BSTAR": 6.0577000000000006e-05,
    "MEAN_MOTION_DOT": 8.13e-06,
    "MEAN_MOTION_DDOT": 0.0,
    "TLE_LINE1": "1 56335U 23058U   25315.01914782  .00000813  00000+0  60577-4 0  9998",
    "TLE_LINE2": "2 56335  97.6032 314.2992 0001603  87.9264 272.2147 15.05651621140346",
    "COMMENT": "Grouped by shell and plane from TLE"
  },
  {
    "OBJECT_NAME": "STARLINK-5562",
    "OBJECT_ID": "23058V",
    "EPOCH": "2025-11-11T06:46:12.809280",
    "MEAN_MOTION": 15.01262668,
    "ECCENTRICITY": 0.000253,
    "INCLINATION": 97.6035,
    "RA_OF_ASC_NODE": 314.2658,
    "ARG_OF_PERICENTER": 85.4528,
    "MEAN_ANOMALY": 274.6985,
    "EPHEMERIS_TYPE": 0,
    "CLASSIFICATION_TYPE": "U",
    "NORAD_CAT_ID": 56336,
    "ELEMENT_SET_NO": 999,
    "REV_AT_EPOCH": 14036,
    "BSTAR": 9.8537e-05,
    "MEAN_MOTION_DOT": 1.208e-05,
    "MEAN_MOTION_DDOT": 0.0,
    "TLE_LINE1": "1 56336U 23058V   25315.28209270  .00001208  00000+0  98537-4 0  9993",
    "TLE_LINE2": "2 56336  97.6035 314.2658 0002530  85.4528 274.6985 15.01262668140368",
    "COMMENT": "Grouped by shell and plane from TLE"
  },
  {
    "OBJECT_NAME": "STARLINK-5561",
    "OBJECT_ID": "23058W",
    "EPOCH": "2025-11-11T06:33:13.969440",
    "MEAN_MOTION": 15.01263266,
    "ECCENTRICITY": 0.000342,
    "INCLINATION": 97.6023,
    "RA_OF_ASC_NODE": 314.279,
    "ARG_OF_PERICENTER": 57.549,
    "MEAN_ANOMALY": 302.6065,
    "EPHEMERIS_TYPE": 0,
    "CLASSIFICATION_TYPE": "U",
    "NORAD_CAT_ID": 56337,
    "ELEMENT_SET_NO": 999,
    "REV_AT_EPOCH": 14036,
    "BSTAR": 4.5263e-05,
    "MEAN_MOTION_DOT": 5.23e-06,
    "MEAN_MOTION_DDOT": 0.0,
    "TLE_LINE1": "1 56337U 23058W   25315.27307835  .00000523  00000+0  45263-4 0  9996",
    "TLE_LINE2": "2 56337  97.6023 314.2790 0003420  57.5490 302.6065 15.01263266140366",
    "COMMENT": "Grouped by shell and plane from TLE"
  },
  {
    "OBJECT_NAME": "STARLINK-5554",
    "OBJECT_ID": "23058X",
    "EPOCH": "2025-11-11T06:35:35.895264",
    "MEAN_MOTION": 15.01229331,
    "ECCENTRICITY": 0.000367,
    "INCLINATION": 97.6031,
    "RA_OF_ASC_NODE": 314.2762,
    "ARG_OF_PERICENTER": 68.4096,
    "MEAN_ANOMALY": 291.7519,
    "EPHEMERIS_TYPE": 0,
    "CLASSIFICATION_TYPE": "U",
    "NORAD_CAT_ID": 56338,
    "ELEMENT_SET_NO": 999,
    "REV_AT_EPOCH": 14036,
    "BSTAR": 0.0,
    "MEAN_MOTION_DOT": -3.906e-05,
    "MEAN_MOTION_DDOT": 0.0,
    "TLE_LINE1": "1 56338U 23058X   25315.27472101 -.00003906  00000+0 -29997-3 0  9991",
    "TLE_LINE2": "2 56338  97.6031 314.2762 0003670  68.4096 291.7519 15.01229331140362",
    "COMMENT": "Grouped by shell and plane from TLE"
  },
  {
    "OBJECT_NAME": "STARLINK-5552",
    "OBJECT_ID": "23058Y",
    "EPOCH": "2025-11-11T06:24:54.095328",
    "MEAN_MOTION": 15.01256075,
    "ECCENTRICITY": 0.0003012,
    "INCLINATION": 97.6017,
    "RA_OF_ASC_NODE": 314.2839,
    "ARG_OF_PERICENTER": 44.2826,
    "MEAN_ANOMALY": 315.8639,
    "EPHEMERIS_TYPE": 0,
    "CLASSIFICATION_TYPE": "U",
    "NORAD_CAT_ID": 56339,
    "ELEMENT_SET_NO": 999,
    "REV_AT_EPOCH": 14036,
    "BSTAR": 9.189e-05,
    "MEAN_MOTION_DOT": 1.122e-05,
    "MEAN_MOTION_DDOT": 0.0,
    "TLE_LINE1": "1 56339U 23058Y   25315.26729277  .00001122  00000+0  91890-4 0  9998",
    "TLE_LINE2": "2 56339  97.6017 314.2839 0003012  44.2826 315.8639 15.01256075140361",
    "COMMENT": "Grouped by shell and plane from TLE"
  },
  {
    "OBJECT_NAME": "STARLINK-5540",
    "OBJECT_ID": "23058Z",
    "EPOCH": "2025-11-11T06:02:30.988320",
    "MEAN_MOTION": 15.05649049,
    "ECCENTRICITY": 0.0001913,
    "INCLINATION": 97.6018,
    "RA_OF_ASC_NODE": 314.4548,
    "ARG_OF_PERICENTER": 87.6407,
    "MEAN_ANOMALY": 272.5039,
    "EPHEMERIS_TYPE": 0,
    "CLASSIFICATION_TYPE": "U",
    "NORAD_CAT_ID": 56340,
    "ELEMENT_SET_NO": 999,
    "REV_AT_EPOCH": 14037,
    "BSTAR": 4.4234000000000004e-05,
    "MEAN_MOTION_DOT": 5.78e-06,
    "MEAN_MOTION_DDOT": 0.0,
    "TLE_LINE1": "1 56340U 23058Z   25315.25174755  .00000578  00000+0  44234-4 0  9998",
    "TLE_LINE2": "2 56340  97.6018 314.4548 0001913  87.6407 272.5039 15.05649049140372",
    "COMMENT": "Grouped by shell and plane from TLE"
  },
  {
    "OBJECT_NAME": "STARLINK-5543",
    "OBJECT_ID": "23058AA",
    "EPOCH": "2025-11-11T06:30:12.856896",
    "MEAN_MOTION": 15.01262011,
    "ECCENTRICITY": 0.0003966,
    "INCLINATION": 97.6025,
    "RA_OF_ASC_NODE": 314.2801,
    "ARG_OF_PERICENTER": 41.9203,
    "MEAN_ANOMALY": 318.2325,
    "EPHEMERIS_TYPE": 0,
    "CLASSIFICATION_TYPE": "U",
    "NORAD_CAT_ID": 56341,
    "ELEMENT_SET_NO": 999,
    "REV_AT_EPOCH": 14035,
    "BSTAR": 4.3098e-05,
    "MEAN_MOTION_DOT": 4.95e-06,
    "MEAN_MOTION_DDOT": 0.0,
    "TLE_LINE1": "1 56341U 23058AA  25315.27098214  .00000495  00000+0  43098-4 0  9991",
    "TLE_LINE2": "2 56341  97.6025 314.2801 0003966  41.9203 318.2325 15.01262011140358",
    "COMMENT": "Grouped by shell and plane from TLE"
  },
  {
    "OBJECT_NAME": "STARLINK-5955",
    "OBJECT_ID": "23058AB",
    "EPOCH": "2025-11-10T10:18:15.338880",
    "MEAN_MOTION": 15.05639433,
    "ECCENTRICITY": 0.0001253,
    "INCLINATION": 97.6022,
    "RA_OF_ASC_NODE": 313.6989,
    "ARG_OF_PERICENTER": 88.6363,
    "MEAN_ANOMALY": 271.5008,
    "EPHEMERIS_TYPE": 0,
    "CLASSIFICATION_TYPE": "U",
    "NORAD_CAT_ID": 56342,
    "ELEMENT_SET_NO": 999,
    "REV_AT_EPOCH": 14025,
    "BSTAR": 0.0,
    "MEAN_MOTION_DOT": -1.214e-05,
    "MEAN_MOTION_DDOT": 0.0,
    "TLE_LINE1": "1 56342U 23058AB  25314.42934420 -.00001214  00000+0 -79928-4 0  9999",
    "TLE_LINE2": "2 56342  97.6022 313.6989 0001253  88.6363 271.5008 15.05639433140256",
    "COMMENT": "Grouped by shell and plane from TLE"
  },
  {
    "OBJECT_NAME": "STARLINK-5976",
    "OBJECT_ID": "23058AC",
    "EPOCH": "2025-11-11T06:06:30.178944",
    "MEAN_MOTION": 15.05650776,
    "ECCENTRICITY": 0.0001677,
    "INCLINATION": 97.6026,
    "RA_OF_ASC_NODE": 314.4521,
    "ARG_OF_PERICENTER": 84.5422,
    "MEAN_ANOMALY": 275.5996,
    "EPHEMERIS_TYPE": 0,
    "CLASSIFICATION_TYPE": "U",
    "NORAD_CAT_ID": 56343,
    "ELEMENT_SET_NO": 999,
    "REV_AT_EPOCH": 14037,
    "BSTAR": 0.00015758,
    "MEAN_MOTION_DOT": 2.214e-05,
    "MEAN_MOTION_DDOT": 0.0,
    "TLE_LINE1": "1 56343U 23058AC  25315.25451596  .00002214  00000+0  15758-3 0  9999",
    "TLE_LINE2": "2 56343  97.6026 314.4521 0001677  84.5422 275.5996 15.05650776140379",
    "COMMENT": "Grouped by shell and plane from TLE"
  },
  {
    "OBJECT_NAME": "STARLINK-5974",
    "OBJECT_ID": "23058AD",
    "EPOCH": "2025-11-11T00:23:35.364192",
    "MEAN_MOTION": 15.05647691,
    "ECCENTRICITY": 0.0001658,
    "INCLINATION": 97.6024,
    "RA_OF_ASC_NODE": 314.3031,
    "ARG_OF_PERICENTER": 90.839,
    "MEAN_ANOMALY": 269.3027,
    "EPHEMERIS_TYPE": 0,
    "CLASSIFICATION_TYPE": "U",
    "NORAD_CAT_ID": 56344,
    "ELEMENT_SET_NO": 999,
    "REV_AT_EPOCH": 14034,
    "BSTAR": 3.9466000000000005e-05,
    "MEAN_MOTION_DOT": 5.09e-06,
    "MEAN_MOTION_DDOT": 0.0,
    "TLE_LINE1": "1 56344U 23058AD  25315.01638153  .00000509  00000+0  39466-4 0  9998",
    "TLE_LINE2": "2 56344  97.6024 314.3031 0001658  90.8390 269.3027 15.05647691140341",
    "COMMENT": "Grouped by shell and plane from TLE"
  }
]